GLOBALSTAR M075         
1 37192U 10054E   24147.67564736 -.00000065  00000+0  21380-3 0  9992
2 37192  51.9953 278.3789 0000807 123.3667 339.3897 12.62274754627561
GLOBALSTAR M073         
1 37193U 10054F   24147.61121353 -.00000080  00000+0  13110-3 0  9990
2 37193  52.0041 192.1013 0000273 176.8431 351.7571 12.62265824629011
GLOBALSTAR M083         
1 37739U 11033A   24147.29271037 -.00000119  00000+0 -86168-4 0  9991
2 37739  51.9835 142.3277 0000377  72.2436  29.7726 12.62270213597997
GLOBALSTAR M088         
1 37740U 11033B   24147.89455243 -.00000089  00000+0  80214-4 0  9993
2 37740  51.9754  46.3101 0000855  78.3029   0.3065 12.62268386593900
GLOBALSTAR M091         
1 37741U 11033C   24147.05594115 -.00000080  00000+0  13099-3 0  9991
2 37741  52.0021  11.7302 0001145  89.0302  75.8283 12.62263047594296
GLOBALSTAR M085         
1 37742U 11033D   24147.48547292 -.00000090  00000+0  79153-4 0  9998
2 37742  51.9879 321.8024 0001108 105.6144 273.0265 12.62271356594867
GLOBALSTAR M081         
1 37743U 11033E   24147.74839049 -.00000081  00000+0  12757-3 0  9998
2 37743  51.9970 323.5511 0001063 116.0447 257.2166 12.62265351595427
GLOBALSTAR M089         
1 37744U 11033F   24147.56560597 -.00000080  00000+0  13344-3 0  9990
2 37744  51.9934 278.4100 0000526 149.8615 291.0887 12.62264081595867
